CCSDS_OMM_VERS = 2.0
CREATION_DATE  = 
ORIGINATOR     = 

OBJECT_NAME    = RASSVET-3 OBJECT J
OBJECT_ID      = 2026-061J
CENTER_NAME    = EARTH
REF_FRAME      = TEME
TIME_SYSTEM    = UTC
MEAN_ELEMENT_THEORY = SGP/SGP4

EPOCH          = 2026-03-31T15:46:03.215424
MEAN_MOTION    = 15.88838410
ECCENTRICITY   = .0026602
INCLINATION    = 82.2968
RA_OF_ASC_NODE = 99.7106
ARG_OF_PERICENTER = 44.7263
MEAN_ANOMALY   = 315.6146

EPHEMERIS_TYPE = 0
CLASSIFICATION_TYPE = U
NORAD_CAT_ID   = 68368
ELEMENT_SET_NO = 999
REV_AT_EPOCH   = 126
BSTAR          = .40633E-3
MEAN_MOTION_DOT = .117868E-2
MEAN_MOTION_DDOT = .3668E-5

CCSDS_OMM_VERS = 2.0
CREATION_DATE  = 
ORIGINATOR     = 

OBJECT_NAME    = RASSVET-3 OBJECT K
OBJECT_ID      = 2026-061K
CENTER_NAME    = EARTH
REF_FRAME      = TEME
TIME_SYSTEM    = UTC
MEAN_ELEMENT_THEORY = SGP/SGP4

EPOCH          = 2026-03-31T15:46:05.226816
MEAN_MOTION    = 15.88648903
ECCENTRICITY   = .0026776
INCLINATION    = 82.2971
RA_OF_ASC_NODE = 99.7109
ARG_OF_PERICENTER = 44.5811
MEAN_ANOMALY   = 315.7607

EPHEMERIS_TYPE = 0
CLASSIFICATION_TYPE = U
NORAD_CAT_ID   = 68369
ELEMENT_SET_NO = 999
REV_AT_EPOCH   = 126
BSTAR          = .22598E-3
MEAN_MOTION_DOT = .65118E-3
MEAN_MOTION_DDOT = .3234E-6

CCSDS_OMM_VERS = 2.0
CREATION_DATE  = 
ORIGINATOR     = 

OBJECT_NAME    = RASSVET-3 OBJECT L
OBJECT_ID      = 2026-061L
CENTER_NAME    = EARTH
REF_FRAME      = TEME
TIME_SYSTEM    = UTC
MEAN_ELEMENT_THEORY = SGP/SGP4

EPOCH          = 2026-03-31T15:45:45.048960
MEAN_MOTION    = 15.88690838
ECCENTRICITY   = .0026563
INCLINATION    = 82.2970
RA_OF_ASC_NODE = 99.7104
ARG_OF_PERICENTER = 44.4425
MEAN_ANOMALY   = 315.8970

EPHEMERIS_TYPE = 0
CLASSIFICATION_TYPE = U
NORAD_CAT_ID   = 68370
ELEMENT_SET_NO = 999
REV_AT_EPOCH   = 126
BSTAR          = .22715E-3
MEAN_MOTION_DOT = .65557E-3
MEAN_MOTION_DDOT = .3438E-6

CCSDS_OMM_VERS = 2.0
CREATION_DATE  = 
ORIGINATOR     = 

OBJECT_NAME    = RASSVET-3 OBJECT M
OBJECT_ID      = 2026-061M
CENTER_NAME    = EARTH
REF_FRAME      = TEME
TIME_SYSTEM    = UTC
MEAN_ELEMENT_THEORY = SGP/SGP4

EPOCH          = 2026-03-31T15:45:33.283872
MEAN_MOTION    = 15.88746118
ECCENTRICITY   = .0026505
INCLINATION    = 82.2970
RA_OF_ASC_NODE = 99.7103
ARG_OF_PERICENTER = 44.4421
MEAN_ANOMALY   = 315.8970

EPHEMERIS_TYPE = 0
CLASSIFICATION_TYPE = U
NORAD_CAT_ID   = 68371
ELEMENT_SET_NO = 999
REV_AT_EPOCH   = 126
BSTAR          = .22899E-3
MEAN_MOTION_DOT = .66259E-3
MEAN_MOTION_DDOT = .37632E-6

CCSDS_OMM_VERS = 2.0
CREATION_DATE  = 
ORIGINATOR     = 

OBJECT_NAME    = RASSVET-3 OBJECT N
OBJECT_ID      = 2026-061N
CENTER_NAME    = EARTH
REF_FRAME      = TEME
TIME_SYSTEM    = UTC
MEAN_ELEMENT_THEORY = SGP/SGP4

EPOCH          = 2026-03-31T15:45:19.160928
MEAN_MOTION    = 15.88751202
ECCENTRICITY   = .0026313
INCLINATION    = 82.2970
RA_OF_ASC_NODE = 99.7100
ARG_OF_PERICENTER = 44.3305
MEAN_ANOMALY   = 316.0066

EPHEMERIS_TYPE = 0
CLASSIFICATION_TYPE = U
NORAD_CAT_ID   = 68372
ELEMENT_SET_NO = 999
REV_AT_EPOCH   = 126
BSTAR          = .2264E-3
MEAN_MOTION_DOT = .65502E-3
MEAN_MOTION_DDOT = .34232E-6

CCSDS_OMM_VERS = 2.0
CREATION_DATE  = 
ORIGINATOR     = 

OBJECT_NAME    = RASSVET-3 OBJECT Q
OBJECT_ID      = 2026-061Q
CENTER_NAME    = EARTH
REF_FRAME      = TEME
TIME_SYSTEM    = UTC
MEAN_ELEMENT_THEORY = SGP/SGP4

EPOCH          = 2026-03-31T15:44:51.779904
MEAN_MOTION    = 15.88835235
ECCENTRICITY   = .002606
INCLINATION    = 82.2970
RA_OF_ASC_NODE = 99.7096
ARG_OF_PERICENTER = 44.1575
MEAN_ANOMALY   = 316.1770

EPHEMERIS_TYPE = 0
CLASSIFICATION_TYPE = U
NORAD_CAT_ID   = 68374
ELEMENT_SET_NO = 999
REV_AT_EPOCH   = 126
BSTAR          = .22471E-3
MEAN_MOTION_DOT = .65252E-3
MEAN_MOTION_DDOT = .33249E-6

CCSDS_OMM_VERS = 2.0
CREATION_DATE  = 
ORIGINATOR     = 

OBJECT_NAME    = RASSVET-3 OBJECT R
OBJECT_ID      = 2026-061R
CENTER_NAME    = EARTH
REF_FRAME      = TEME
TIME_SYSTEM    = UTC
MEAN_ELEMENT_THEORY = SGP/SGP4

EPOCH          = 2026-03-31T15:43:56.331840
MEAN_MOTION    = 15.89296702
ECCENTRICITY   = .0025462
INCLINATION    = 82.2966
RA_OF_ASC_NODE = 99.7084
ARG_OF_PERICENTER = 44.5811
MEAN_ANOMALY   = 315.7502

EPHEMERIS_TYPE = 0
CLASSIFICATION_TYPE = U
NORAD_CAT_ID   = 68375
ELEMENT_SET_NO = 999
REV_AT_EPOCH   = 126
BSTAR          = .39091E-3
MEAN_MOTION_DOT = .115755E-2
MEAN_MOTION_DDOT = .35198E-5

CCSDS_OMM_VERS = 2.0
CREATION_DATE  = 
ORIGINATOR     = 

OBJECT_NAME    = SUPERVIEW NEO-2 OBJECT A
OBJECT_ID      = 2026-062A
CENTER_NAME    = EARTH
REF_FRAME      = TEME
TIME_SYSTEM    = UTC
MEAN_ELEMENT_THEORY = SGP/SGP4

EPOCH          = 2026-03-31T20:29:05.046432
MEAN_MOTION    = 15.20592413
ECCENTRICITY   = .0006268
INCLINATION    = 97.4363
RA_OF_ASC_NODE = 99.2554
ARG_OF_PERICENTER = 246.0309
MEAN_ANOMALY   = 114.0270

EPHEMERIS_TYPE = 0
CLASSIFICATION_TYPE = U
NORAD_CAT_ID   = 68377
ELEMENT_SET_NO = 999
REV_AT_EPOCH   = 90
BSTAR          = .19831E-3
MEAN_MOTION_DOT = .4278E-4
MEAN_MOTION_DDOT = 0

CCSDS_OMM_VERS = 2.0
CREATION_DATE  = 
ORIGINATOR     = 

OBJECT_NAME    = SUPERVIEW NEO-2 OBJECT B
OBJECT_ID      = 2026-062B
CENTER_NAME    = EARTH
REF_FRAME      = TEME
TIME_SYSTEM    = UTC
MEAN_ELEMENT_THEORY = SGP/SGP4

EPOCH          = 2026-03-31T17:19:08.069088
MEAN_MOTION    = 15.20585060
ECCENTRICITY   = .0008952
INCLINATION    = 97.4347
RA_OF_ASC_NODE = 99.1253
ARG_OF_PERICENTER = 250.4427
MEAN_ANOMALY   = 109.5842

EPHEMERIS_TYPE = 0
CLASSIFICATION_TYPE = U
NORAD_CAT_ID   = 68378
ELEMENT_SET_NO = 999
REV_AT_EPOCH   = 88
BSTAR          = .19791E-3
MEAN_MOTION_DOT = .427E-4
MEAN_MOTION_DDOT = 0

CCSDS_OMM_VERS = 2.0
CREATION_DATE  = 
ORIGINATOR     = 

OBJECT_NAME    = CZ-2D R/B
OBJECT_ID      = 2026-062C
CENTER_NAME    = EARTH
REF_FRAME      = TEME
TIME_SYSTEM    = UTC
MEAN_ELEMENT_THEORY = SGP/SGP4

EPOCH          = 2026-03-31T21:04:18.412896
MEAN_MOTION    = 15.31110698
ECCENTRICITY   = .0053197
INCLINATION    = 97.4980
RA_OF_ASC_NODE = 99.2178
ARG_OF_PERICENTER = 41.0679
MEAN_ANOMALY   = 319.4548

EPHEMERIS_TYPE = 0
CLASSIFICATION_TYPE = U
NORAD_CAT_ID   = 68379
ELEMENT_SET_NO = 999
REV_AT_EPOCH   = 91
BSTAR          = .43609E-3
MEAN_MOTION_DOT = .13621E-3
MEAN_MOTION_DDOT = 0

CCSDS_OMM_VERS = 2.0
CREATION_DATE  = 
ORIGINATOR     = 

OBJECT_NAME    = SHIYAN-33
OBJECT_ID      = 2026-064A
CENTER_NAME    = EARTH
REF_FRAME      = TEME
TIME_SYSTEM    = UTC
MEAN_ELEMENT_THEORY = SGP/SGP4

EPOCH          = 2026-03-31T16:26:44.248704
MEAN_MOTION    = 15.23164341
ECCENTRICITY   = .0013375
INCLINATION    = 97.4664
RA_OF_ASC_NODE = 166.6121
ARG_OF_PERICENTER = 213.1651
MEAN_ANOMALY   = 146.8748

EPHEMERIS_TYPE = 0
CLASSIFICATION_TYPE = U
NORAD_CAT_ID   = 68405
ELEMENT_SET_NO = 999
REV_AT_EPOCH   = 69
BSTAR          = .32007E-3
MEAN_MOTION_DOT = .7511E-4
MEAN_MOTION_DDOT = 0

CCSDS_OMM_VERS = 2.0
CREATION_DATE  = 
ORIGINATOR     = 

OBJECT_NAME    = LPNTSAT-001 (IOD-1)
OBJECT_ID      = 2026-065A
CENTER_NAME    = EARTH
REF_FRAME      = TEME
TIME_SYSTEM    = UTC
MEAN_ELEMENT_THEORY = SGP/SGP4

EPOCH          = 2026-03-31T15:25:41.495232
MEAN_MOTION    = 15.18232295
ECCENTRICITY   = .0015363
INCLINATION    = 97.4133
RA_OF_ASC_NODE = 332.7616
ARG_OF_PERICENTER = 275.1265
MEAN_ANOMALY   = 84.8216

EPHEMERIS_TYPE = 0
CLASSIFICATION_TYPE = U
NORAD_CAT_ID   = 68408
ELEMENT_SET_NO = 999
REV_AT_EPOCH   = 49
BSTAR          = .19555E-3
MEAN_MOTION_DOT = .3946E-4
MEAN_MOTION_DDOT = 0

